KUIPER-00061            
1 64521U 25134X   25358.83334491 -.00034775  00000+0 -47143-2 0  9999
2 64521  51.8989 199.0546 0004777  44.2364  90.6761 14.78488782  4013
KUIPER-00062            
1 64522U 25134Y   25358.86359602  .00003113  00000+0  38755-3 0  9994
2 64522  51.8957 203.4902 0007504  51.0529 309.1103 14.85065965 29001
KUIPER-00063            
1 64523U 25134Z   25358.83334491  .00024584  00000+0  33230-2 0  9998
2 64523  51.8998 209.0898 0001466  89.4684  84.1501 14.78891049  4244
KUIPER-00064            
1 64524U 25134AA  25358.87195531  .00002870  00000+0  40595-3 0  9990
2 64524  51.9001 206.3464 0008023 103.6995 256.4861 14.79879328 28965
KUIPER-00065            
1 64525U 25134AB  25358.83334491 -.00022042  00000+0 -27449-2 0  9994
2 64525  51.9002 211.7707 0011794  35.7210  95.4093 14.81757812  3766
KUIPER-00066            
1 64526U 25134AC  25358.79335197  .00010513  00000+0  47936-3 0  9996
2 64526  51.8910 177.8342 0000116 126.9898 233.1093 15.21163385 29357
KUIPER-00069            
1 64816U 25151A   25358.68815765  .00004641  00000+0  64246-3 0  9997
2 64816  51.9004 252.2677 0005668  45.7795 314.3632 14.79590062 25652
KUIPER-00070            
1 64817U 25151B   25358.15491620  .00005876  00000+0  79787-3 0  9997
2 64817  51.8992 279.5799 0010939   6.8924 353.2187 14.79978410 25232
